BEIJING 1               
1 28890U 05043A   25334.18778567  .00000496  00000+0  10538-3 0  9993
2 28890  98.2648 101.6656 0014629 179.6985 180.4228 14.63346904 71540
HUANJING 1A (HJ-1A)     
1 33320U 08041A   25334.21681804  .00001702  00000+0  21321-3 0  9992
2 33320  97.6534 323.0395 0020740  73.0081 287.3405 14.83331481928907
HUANJING 1B (HJ-1B)     
1 33321U 08041B   25334.23809515  .00001409  00000+0  17845-3 0  9996
2 33321  97.6394 326.7894 0038050 115.2840 245.2324 14.82770290928920
YAOGAN-4                
1 33446U 08061A   25333.30857792  .00001570  00000+0  20133-3 0  9996
2 33446  97.9165 263.5414 0014751   7.8855 352.2587 14.82614558916041
DEIMOS-1                
1 35681U 09041A   25334.16367874  .00000826  00000+0  13006-3 0  9994
2 35681  97.7145 135.3531 0002645 102.1872 257.9634 14.74921713877543
UK-DMC 2                
1 35683U 09041C   25334.16650654  .00001194  00000+0  18228-3 0  9997
2 35683  97.8559 109.4253 0001243 102.9042 257.2307 14.75577203877214
DMC3-FM1                
1 40715U 15032A   25334.17302332  .00000947  00000+0  11595-3 0  9999
2 40715  97.6707 201.8225 0005601   4.8563 355.2705 14.85405333560366
DMC3-FM2                
1 40716U 15032B   25334.19553304  .00000943  00000+0  11543-3 0  9998
2 40716  97.6759 203.2791 0006256   8.8575 351.2750 14.85406435560362
