{
  "type": "FeatureCollection",
  "features": [
    {
      "type": "Feature",
      "properties": {
        "OBJECT_NAME": "BEIJING 1",
        "OBJECT_ID": "2005-043A",
        "EPOCH": "2025-11-30T04:30:24.681888",
        "MEAN_MOTION": 14.63346904,
        "ECCENTRICITY": 0.0014629,
        "INCLINATION": 98.2648,
        "RA_OF_ASC_NODE": 101.6656,
        "ARG_OF_PERICENTER": 179.6985,
        "MEAN_ANOMALY": 180.4228,
        "EPHEMERIS_TYPE": 0,
        "CLASSIFICATION_TYPE": "U",
        "NORAD_CAT_ID": 28890,
        "ELEMENT_SET_NO": 999,
        "REV_AT_EPOCH": 7154,
        "BSTAR": 0.00010538,
        "MEAN_MOTION_DOT": 4.96e-06,
        "MEAN_MOTION_DDOT": 0,
        "norad_id": 28890,
        "name": "BEIJING 1",
        "group": "dmc",
        "longitude_deg": NaN,
        "latitude_deg": NaN,
        "alt_km": NaN,
        "orbit_class": "HEO",
        "timestamp": "2025-11-30T09:33:02.501286+00:00"
      },
      "geometry": {
        "type": "Point",
        "coordinates": [
          NaN,
          NaN
        ]
      }
    },
    {
      "type": "Feature",
      "properties": {
        "OBJECT_NAME": "HUANJING 1A (HJ-1A)",
        "OBJECT_ID": "2008-041A",
        "EPOCH": "2025-11-30T05:12:13.078656",
        "MEAN_MOTION": 14.83331481,
        "ECCENTRICITY": 0.002074,
        "INCLINATION": 97.6534,
        "RA_OF_ASC_NODE": 323.0395,
        "ARG_OF_PERICENTER": 73.0081,
        "MEAN_ANOMALY": 287.3405,
        "EPHEMERIS_TYPE": 0,
        "CLASSIFICATION_TYPE": "U",
        "NORAD_CAT_ID": 33320,
        "ELEMENT_SET_NO": 999,
        "REV_AT_EPOCH": 92890,
        "BSTAR": 0.00021321,
        "MEAN_MOTION_DOT": 1.702e-05,
        "MEAN_MOTION_DDOT": 0,
        "norad_id": 33320,
        "name": "HUANJING 1A (HJ-1A)",
        "group": "dmc",
        "longitude_deg": NaN,
        "latitude_deg": NaN,
        "alt_km": NaN,
        "orbit_class": "HEO",
        "timestamp": "2025-11-30T09:33:02.501970+00:00"
      },
      "geometry": {
        "type": "Point",
        "coordinates": [
          NaN,
          NaN
        ]
      }
    },
    {
      "type": "Feature",
      "properties": {
        "OBJECT_NAME": "HUANJING 1B (HJ-1B)",
        "OBJECT_ID": "2008-041B",
        "EPOCH": "2025-11-30T05:42:51.420960",
        "MEAN_MOTION": 14.8277029,
        "ECCENTRICITY": 0.003805,
        "INCLINATION": 97.6394,
        "RA_OF_ASC_NODE": 326.7894,
        "ARG_OF_PERICENTER": 115.284,
        "MEAN_ANOMALY": 245.2324,
        "EPHEMERIS_TYPE": 0,
        "CLASSIFICATION_TYPE": "U",
        "NORAD_CAT_ID": 33321,
        "ELEMENT_SET_NO": 999,
        "REV_AT_EPOCH": 92892,
        "BSTAR": 0.00017845,
        "MEAN_MOTION_DOT": 1.409e-05,
        "MEAN_MOTION_DDOT": 0,
        "norad_id": 33321,
        "name": "HUANJING 1B (HJ-1B)",
        "group": "dmc",
        "longitude_deg": NaN,
        "latitude_deg": NaN,
        "alt_km": NaN,
        "orbit_class": "HEO",
        "timestamp": "2025-11-30T09:33:02.501976+00:00"
      },
      "geometry": {
        "type": "Point",
        "coordinates": [
          NaN,
          NaN
        ]
      }
    },
    {
      "type": "Feature",
      "properties": {
        "OBJECT_NAME": "YAOGAN-4",
        "OBJECT_ID": "2008-061A",
        "EPOCH": "2025-11-29T07:24:21.132288",
        "MEAN_MOTION": 14.82614558,
        "ECCENTRICITY": 0.0014751,
        "INCLINATION": 97.9165,
        "RA_OF_ASC_NODE": 263.5414,
        "ARG_OF_PERICENTER": 7.8855,
        "MEAN_ANOMALY": 352.2587,
        "EPHEMERIS_TYPE": 0,
        "CLASSIFICATION_TYPE": "U",
        "NORAD_CAT_ID": 33446,
        "ELEMENT_SET_NO": 999,
        "REV_AT_EPOCH": 91604,
        "BSTAR": 0.00020133054,
        "MEAN_MOTION_DOT": 1.57e-05,
        "MEAN_MOTION_DDOT": 0,
        "norad_id": 33446,
        "name": "YAOGAN-4",
        "group": "dmc",
        "longitude_deg": NaN,
        "latitude_deg": NaN,
        "alt_km": NaN,
        "orbit_class": "HEO",
        "timestamp": "2025-11-30T09:33:02.502047+00:00"
      },
      "geometry": {
        "type": "Point",
        "coordinates": [
          NaN,
          NaN
        ]
      }
    },
    {
      "type": "Feature",
      "properties": {
        "OBJECT_NAME": "DEIMOS-1",
        "OBJECT_ID": "2009-041A",
        "EPOCH": "2025-11-30T03:55:41.843136",
        "MEAN_MOTION": 14.74921713,
        "ECCENTRICITY": 0.0002645,
        "INCLINATION": 97.7145,
        "RA_OF_ASC_NODE": 135.3531,
        "ARG_OF_PERICENTER": 102.1872,
        "MEAN_ANOMALY": 257.9634,
        "EPHEMERIS_TYPE": 0,
        "CLASSIFICATION_TYPE": "U",
        "NORAD_CAT_ID": 35681,
        "ELEMENT_SET_NO": 999,
        "REV_AT_EPOCH": 87754,
        "BSTAR": 0.00013006,
        "MEAN_MOTION_DOT": 8.26e-06,
        "MEAN_MOTION_DDOT": 0,
        "norad_id": 35681,
        "name": "DEIMOS-1",
        "group": "dmc",
        "longitude_deg": NaN,
        "latitude_deg": NaN,
        "alt_km": NaN,
        "orbit_class": "HEO",
        "timestamp": "2025-11-30T09:33:02.502160+00:00"
      },
      "geometry": {
        "type": "Point",
        "coordinates": [
          NaN,
          NaN
        ]
      }
    },
    {
      "type": "Feature",
      "properties": {
        "OBJECT_NAME": "UK-DMC 2",
        "OBJECT_ID": "2009-041C",
        "EPOCH": "2025-11-30T03:59:46.165056",
        "MEAN_MOTION": 14.75577203,
        "ECCENTRICITY": 0.0001243,
        "INCLINATION": 97.8559,
        "RA_OF_ASC_NODE": 109.4253,
        "ARG_OF_PERICENTER": 102.9042,
        "MEAN_ANOMALY": 257.2307,
        "EPHEMERIS_TYPE": 0,
        "CLASSIFICATION_TYPE": "U",
        "NORAD_CAT_ID": 35683,
        "ELEMENT_SET_NO": 999,
        "REV_AT_EPOCH": 87721,
        "BSTAR": 0.00018228,
        "MEAN_MOTION_DOT": 1.194e-05,
        "MEAN_MOTION_DDOT": 0,
        "norad_id": 35683,
        "name": "UK-DMC 2",
        "group": "dmc",
        "longitude_deg": NaN,
        "latitude_deg": NaN,
        "alt_km": NaN,
        "orbit_class": "HEO",
        "timestamp": "2025-11-30T09:33:02.502173+00:00"
      },
      "geometry": {
        "type": "Point",
        "coordinates": [
          NaN,
          NaN
        ]
      }
    },
    {
      "type": "Feature",
      "properties": {
        "OBJECT_NAME": "DMC3-FM1",
        "OBJECT_ID": "2015-032A",
        "EPOCH": "2025-11-30T04:09:09.214848",
        "MEAN_MOTION": 14.85405333,
        "ECCENTRICITY": 0.0005601,
        "INCLINATION": 97.6707,
        "RA_OF_ASC_NODE": 201.8225,
        "ARG_OF_PERICENTER": 4.8563,
        "MEAN_ANOMALY": 355.2705,
        "EPHEMERIS_TYPE": 0,
        "CLASSIFICATION_TYPE": "U",
        "NORAD_CAT_ID": 40715,
        "ELEMENT_SET_NO": 999,
        "REV_AT_EPOCH": 56036,
        "BSTAR": 0.00011595,
        "MEAN_MOTION_DOT": 9.47e-06,
        "MEAN_MOTION_DDOT": 0,
        "norad_id": 40715,
        "name": "DMC3-FM1",
        "group": "dmc",
        "longitude_deg": NaN,
        "latitude_deg": NaN,
        "alt_km": NaN,
        "orbit_class": "HEO",
        "timestamp": "2025-11-30T09:33:02.505381+00:00"
      },
      "geometry": {
        "type": "Point",
        "coordinates": [
          NaN,
          NaN
        ]
      }
    },
    {
      "type": "Feature",
      "properties": {
        "OBJECT_NAME": "DMC3-FM2",
        "OBJECT_ID": "2015-032B",
        "EPOCH": "2025-11-30T04:41:34.054656",
        "MEAN_MOTION": 14.85406435,
        "ECCENTRICITY": 0.0006256,
        "INCLINATION": 97.6759,
        "RA_OF_ASC_NODE": 203.2791,
        "ARG_OF_PERICENTER": 8.8575,
        "MEAN_ANOMALY": 351.275,
        "EPHEMERIS_TYPE": 0,
        "CLASSIFICATION_TYPE": "U",
        "NORAD_CAT_ID": 40716,
        "ELEMENT_SET_NO": 999,
        "REV_AT_EPOCH": 56036,
        "BSTAR": 0.00011543,
        "MEAN_MOTION_DOT": 9.43e-06,
        "MEAN_MOTION_DDOT": 0,
        "norad_id": 40716,
        "name": "DMC3-FM2",
        "group": "dmc",
        "longitude_deg": NaN,
        "latitude_deg": NaN,
        "alt_km": NaN,
        "orbit_class": "HEO",
        "timestamp": "2025-11-30T09:33:02.505390+00:00"
      },
      "geometry": {
        "type": "Point",
        "coordinates": [
          NaN,
          NaN
        ]
      }
    }
  ]
}